STARLINK-4406           
1 53667U 22105V   26068.67497366  .00005451  00000+0  38131-3 0  9990
2 53667  97.5995 311.2806 0003274  72.4901 287.6683 15.05688645193307
UMBRA-07                
1 58297U 23174AT  26068.71829358  .00012685  00000+0  84614-3 0  9990
2 58297  97.3902 128.3323 0004131  75.5473 284.6213 15.07174057128425
